[{"OBJECT_NAME":"ONEWEB-0461","OBJECT_ID":"2022-012AD","EPOCH":"2026-03-09T21:42:35.803584","MEAN_MOTION":13.17649095,"ECCENTRICITY":0.00019956,"INCLINATION":87.917,"RA_OF_ASC_NODE":25.5627,"ARG_OF_PERICENTER":76.4805,"MEAN_ANOMALY":283.6548,"EPHEMERIS_TYPE":0,"CLASSIFICATION_TYPE":"U","NORAD_CAT_ID":51649,"ELEMENT_SET_NO":999,"REV_AT_EPOCH":20081,"BSTAR":-0.00065651041,"MEAN_MOTION_DOT":-2.42e-6,"MEAN_MOTION_DDOT":0},{"OBJECT_NAME":"SL-14 DEB","OBJECT_ID":"1991-056BD","EPOCH":"2026-03-09T19:16:38.934624","MEAN_MOTION":13.15511547,"ECCENTRICITY":0.0026402,"INCLINATION":82.5605,"RA_OF_ASC_NODE":217.0374,"ARG_OF_PERICENTER":87.5299,"MEAN_ANOMALY":272.8845,"EPHEMERIS_TYPE":0,"CLASSIFICATION_TYPE":"U","NORAD_CAT_ID":45315,"ELEMENT_SET_NO":999,"REV_AT_EPOCH":28954,"BSTAR":0.00066652509,"MEAN_MOTION_DOT":2.64e-6,"MEAN_MOTION_DDOT":0}]
